[Satellite]
VERSION=1.1
NAME=CHINASAT 5C (ZX 5C)
NICKNAME=CHINASAT 5C (ZX 5C)
TLE1=1 31577U 07021A   11059.91587235 -.00000024  00000-0  10000-3 0   823
TLE2=2 31577   0.0718 253.9812 0002932  21.8406 287.1585  0.99873943 13752
